CCSDS_OMM_VERS = 2.0
CREATION_DATE  = 
ORIGINATOR     = 

OBJECT_NAME    = STARLINK-36565
OBJECT_ID      = 2026-014N
CENTER_NAME    = EARTH
REF_FRAME      = TEME
TIME_SYSTEM    = UTC
MEAN_ELEMENT_THEORY = SGP/SGP4

EPOCH          = 2026-02-13T22:00:01.999584
MEAN_MOTION    = 15.75285739
ECCENTRICITY   = .0001433
INCLINATION    = 97.2846
RA_OF_ASC_NODE = 288.6899
ARG_OF_PERICENTER = 87.2530
MEAN_ANOMALY   = 212.3335

EPHEMERIS_TYPE = 0
CLASSIFICATION_TYPE = U
NORAD_CAT_ID   = 67544
ELEMENT_SET_NO = 999
REV_AT_EPOCH   = 486
BSTAR          = -.14056293E-2
MEAN_MOTION_DOT = -.205681E-2
MEAN_MOTION_DDOT = 0

CCSDS_OMM_VERS = 2.0
CREATION_DATE  = 
ORIGINATOR     = 

OBJECT_NAME    = STARLINK-36583
OBJECT_ID      = 2026-014P
CENTER_NAME    = EARTH
REF_FRAME      = TEME
TIME_SYSTEM    = UTC
MEAN_ELEMENT_THEORY = SGP/SGP4

EPOCH          = 2026-02-13T21:18:29.286144
MEAN_MOTION    = 15.75257779
ECCENTRICITY   = .00012499
INCLINATION    = 97.2845
RA_OF_ASC_NODE = 288.5998
ARG_OF_PERICENTER = 76.7430
MEAN_ANOMALY   = 283.3974

EPHEMERIS_TYPE = 0
CLASSIFICATION_TYPE = U
NORAD_CAT_ID   = 67545
ELEMENT_SET_NO = 999
REV_AT_EPOCH   = 482
BSTAR          = .12386638E-2
MEAN_MOTION_DOT = .189332E-2
MEAN_MOTION_DDOT = 0

CCSDS_OMM_VERS = 2.0
CREATION_DATE  = 
ORIGINATOR     = 

OBJECT_NAME    = STARLINK-36580
OBJECT_ID      = 2026-014Q
CENTER_NAME    = EARTH
REF_FRAME      = TEME
TIME_SYSTEM    = UTC
MEAN_ELEMENT_THEORY = SGP/SGP4

EPOCH          = 2026-02-13T22:00:01.999584
MEAN_MOTION    = 15.75236942
ECCENTRICITY   = .00015099
INCLINATION    = 97.2849
RA_OF_ASC_NODE = 288.6748
ARG_OF_PERICENTER = 94.1170
MEAN_ANOMALY   = 171.4939

EPHEMERIS_TYPE = 0
CLASSIFICATION_TYPE = U
NORAD_CAT_ID   = 67546
ELEMENT_SET_NO = 999
REV_AT_EPOCH   = 486
BSTAR          = -.86239721E-3
MEAN_MOTION_DOT = -.127129E-2
MEAN_MOTION_DDOT = 0

CCSDS_OMM_VERS = 2.0
CREATION_DATE  = 
ORIGINATOR     = 

OBJECT_NAME    = STARLINK-36584
OBJECT_ID      = 2026-014R
CENTER_NAME    = EARTH
REF_FRAME      = TEME
TIME_SYSTEM    = UTC
MEAN_ELEMENT_THEORY = SGP/SGP4

EPOCH          = 2026-02-13T20:36:21.506400
MEAN_MOTION    = 15.80935284
ECCENTRICITY   = .00009118
INCLINATION    = 97.2872
RA_OF_ASC_NODE = 288.6340
ARG_OF_PERICENTER = 64.9120
MEAN_ANOMALY   = 295.2243

EPHEMERIS_TYPE = 0
CLASSIFICATION_TYPE = U
NORAD_CAT_ID   = 67547
ELEMENT_SET_NO = 999
REV_AT_EPOCH   = 482
BSTAR          = .13334908E-2
MEAN_MOTION_DOT = .264625E-2
MEAN_MOTION_DDOT = 0

CCSDS_OMM_VERS = 2.0
CREATION_DATE  = 
ORIGINATOR     = 

OBJECT_NAME    = STARLINK-36586
OBJECT_ID      = 2026-014S
CENTER_NAME    = EARTH
REF_FRAME      = TEME
TIME_SYSTEM    = UTC
MEAN_ELEMENT_THEORY = SGP/SGP4

EPOCH          = 2026-02-13T22:05:32.742240
MEAN_MOTION    = 15.80886387
ECCENTRICITY   = .00014526
INCLINATION    = 97.2856
RA_OF_ASC_NODE = 288.7106
ARG_OF_PERICENTER = 105.7540
MEAN_ANOMALY   = 254.3888

EPHEMERIS_TYPE = 0
CLASSIFICATION_TYPE = U
NORAD_CAT_ID   = 67548
ELEMENT_SET_NO = 999
REV_AT_EPOCH   = 483
BSTAR          = .89951411E-3
MEAN_MOTION_DOT = .176248E-2
MEAN_MOTION_DDOT = 0

CCSDS_OMM_VERS = 2.0
CREATION_DATE  = 
ORIGINATOR     = 

OBJECT_NAME    = STARLINK-36564
OBJECT_ID      = 2026-014T
CENTER_NAME    = EARTH
REF_FRAME      = TEME
TIME_SYSTEM    = UTC
MEAN_ELEMENT_THEORY = SGP/SGP4

EPOCH          = 2026-02-13T21:04:15.556512
MEAN_MOTION    = 15.75268652
ECCENTRICITY   = .00014794
INCLINATION    = 97.2845
RA_OF_ASC_NODE = 288.6141
ARG_OF_PERICENTER = 82.2923
MEAN_ANOMALY   = 277.8511

EPHEMERIS_TYPE = 0
CLASSIFICATION_TYPE = U
NORAD_CAT_ID   = 67549
ELEMENT_SET_NO = 999
REV_AT_EPOCH   = 476
BSTAR          = .14114566E-2
MEAN_MOTION_DOT = .216559E-2
MEAN_MOTION_DDOT = 0

CCSDS_OMM_VERS = 2.0
CREATION_DATE  = 
ORIGINATOR     = 

OBJECT_NAME    = STARLINK-36563
OBJECT_ID      = 2026-014U
CENTER_NAME    = EARTH
REF_FRAME      = TEME
TIME_SYSTEM    = UTC
MEAN_ELEMENT_THEORY = SGP/SGP4

EPOCH          = 2026-02-13T20:58:09.535872
MEAN_MOTION    = 15.75256193
ECCENTRICITY   = .00012413
INCLINATION    = 97.2850
RA_OF_ASC_NODE = 288.6194
ARG_OF_PERICENTER = 93.0219
MEAN_ANOMALY   = 267.1188

EPHEMERIS_TYPE = 0
CLASSIFICATION_TYPE = U
NORAD_CAT_ID   = 67550
ELEMENT_SET_NO = 999
REV_AT_EPOCH   = 482
BSTAR          = .92208831E-3
MEAN_MOTION_DOT = .140084E-2
MEAN_MOTION_DDOT = 0

CCSDS_OMM_VERS = 2.0
CREATION_DATE  = 
ORIGINATOR     = 

OBJECT_NAME    = STARLINK-36566
OBJECT_ID      = 2026-014V
CENTER_NAME    = EARTH
REF_FRAME      = TEME
TIME_SYSTEM    = UTC
MEAN_ELEMENT_THEORY = SGP/SGP4

EPOCH          = 2026-02-13T19:23:37.921920
MEAN_MOTION    = 15.75270550
ECCENTRICITY   = .00014242
INCLINATION    = 97.2849
RA_OF_ASC_NODE = 288.5558
ARG_OF_PERICENTER = 115.6151
MEAN_ANOMALY   = 244.5262

EPHEMERIS_TYPE = 0
CLASSIFICATION_TYPE = U
NORAD_CAT_ID   = 67551
ELEMENT_SET_NO = 999
REV_AT_EPOCH   = 480
BSTAR          = .13854356E-2
MEAN_MOTION_DOT = .212479E-2
MEAN_MOTION_DDOT = 0

CCSDS_OMM_VERS = 2.0
CREATION_DATE  = 
ORIGINATOR     = 

OBJECT_NAME    = STARLINK-36567
OBJECT_ID      = 2026-014W
CENTER_NAME    = EARTH
REF_FRAME      = TEME
TIME_SYSTEM    = UTC
MEAN_ELEMENT_THEORY = SGP/SGP4

EPOCH          = 2026-02-13T22:38:47.421888
MEAN_MOTION    = 15.75256638
ECCENTRICITY   = .00011102
INCLINATION    = 97.2849
RA_OF_ASC_NODE = 288.6739
ARG_OF_PERICENTER = 74.6895
MEAN_ANOMALY   = 285.4493

EPHEMERIS_TYPE = 0
CLASSIFICATION_TYPE = U
NORAD_CAT_ID   = 67552
ELEMENT_SET_NO = 999
REV_AT_EPOCH   = 482
BSTAR          = .14394907E-2
MEAN_MOTION_DOT = .22086E-2
MEAN_MOTION_DDOT = 0

CCSDS_OMM_VERS = 2.0
CREATION_DATE  = 
ORIGINATOR     = 

OBJECT_NAME    = STARLINK-36569
OBJECT_ID      = 2026-014X
CENTER_NAME    = EARTH
REF_FRAME      = TEME
TIME_SYSTEM    = UTC
MEAN_ELEMENT_THEORY = SGP/SGP4

EPOCH          = 2026-02-13T22:00:01.999584
MEAN_MOTION    = 15.75139471
ECCENTRICITY   = .00011674
INCLINATION    = 97.2855
RA_OF_ASC_NODE = 288.7080
ARG_OF_PERICENTER = 120.9543
MEAN_ANOMALY   = 234.6658

EPHEMERIS_TYPE = 0
CLASSIFICATION_TYPE = U
NORAD_CAT_ID   = 67553
ELEMENT_SET_NO = 999
REV_AT_EPOCH   = 486
BSTAR          = .4449168E-3
MEAN_MOTION_DOT = .66605E-3
MEAN_MOTION_DDOT = 0

CCSDS_OMM_VERS = 2.0
CREATION_DATE  = 
ORIGINATOR     = 

OBJECT_NAME    = STARLINK-36395
OBJECT_ID      = 2026-014Y
CENTER_NAME    = EARTH
REF_FRAME      = TEME
TIME_SYSTEM    = UTC
MEAN_ELEMENT_THEORY = SGP/SGP4

EPOCH          = 2026-02-13T22:30:39.476160
MEAN_MOTION    = 15.75241901
ECCENTRICITY   = .00015048
INCLINATION    = 97.2855
RA_OF_ASC_NODE = 288.6822
ARG_OF_PERICENTER = 86.8682
MEAN_ANOMALY   = 273.2755

EPHEMERIS_TYPE = 0
CLASSIFICATION_TYPE = U
NORAD_CAT_ID   = 67554
ELEMENT_SET_NO = 999
REV_AT_EPOCH   = 482
BSTAR          = .10149688E-2
MEAN_MOTION_DOT = .154373E-2
MEAN_MOTION_DDOT = 0

CCSDS_OMM_VERS = 2.0
CREATION_DATE  = 
ORIGINATOR     = 

OBJECT_NAME    = STARLINK-36559
OBJECT_ID      = 2026-014Z
CENTER_NAME    = EARTH
REF_FRAME      = TEME
TIME_SYSTEM    = UTC
MEAN_ELEMENT_THEORY = SGP/SGP4

EPOCH          = 2026-02-13T21:01:12.677952
MEAN_MOTION    = 15.75267692
ECCENTRICITY   = .00013055
INCLINATION    = 97.2856
RA_OF_ASC_NODE = 288.6132
ARG_OF_PERICENTER = 81.6571
MEAN_ANOMALY   = 278.4842

EPHEMERIS_TYPE = 0
CLASSIFICATION_TYPE = U
NORAD_CAT_ID   = 67555
ELEMENT_SET_NO = 999
REV_AT_EPOCH   = 481
BSTAR          = .14596868E-2
MEAN_MOTION_DOT = .224155E-2
MEAN_MOTION_DDOT = 0

