STARLINK-36565          
1 67544U 26014N   26044.91668981 -.00205681  00000+0 -14056-2 0  9994
2 67544  97.2846 288.6899 0001433  87.2530 212.3335 15.75285739  4869
STARLINK-36583          
1 67545U 26014P   26044.88783896  .00189332  00000+0  12387-2 0  9991
2 67545  97.2845 288.5998 0001249  76.7430 283.3974 15.75257779  4821
STARLINK-36580          
1 67546U 26014Q   26044.91668981 -.00127129  00000+0 -86240-3 0  9991
2 67546  97.2849 288.6748 0001509  94.1170 171.4939 15.75236942  4865
STARLINK-36584          
1 67547U 26014R   26044.85858225  .00264625  00000+0  13335-2 0  9992
2 67547  97.2872 288.6340 0000911  64.9120 295.2243 15.80935284  4826
STARLINK-36586          
1 67548U 26014S   26044.92051785  .00176248  00000+0  89951-3 0  9998
2 67548  97.2856 288.7106 0001452 105.7540 254.3888 15.80886387  4832
STARLINK-36564          
1 67549U 26014T   26044.87795783  .00216559  00000+0  14115-2 0  9995
2 67549  97.2845 288.6141 0001479  82.2923 277.8511 15.75268652  4760
STARLINK-36563          
1 67550U 26014U   26044.87372148  .00140084  00000+0  92209-3 0  9993
2 67550  97.2850 288.6194 0001241  93.0219 267.1188 15.75256193  4827
STARLINK-36566          
1 67551U 26014V   26044.80807780  .00212479  00000+0  13854-2 0  9998
2 67551  97.2849 288.5558 0001424 115.6151 244.5262 15.75270550  4801
STARLINK-36567          
1 67552U 26014W   26044.94360442  .00220860  00000+0  14395-2 0  9997
2 67552  97.2849 288.6739 0001110  74.6895 285.4493 15.75256638  4828
STARLINK-36569          
1 67553U 26014X   26044.91668981  .00066605  00000+0  44492-3 0  9991
2 67553  97.2855 288.7080 0001167 120.9543 234.6658 15.75139471  4861
STARLINK-36395          
1 67554U 26014Y   26044.93795690  .00154373  00000+0  10150-2 0  9995
2 67554  97.2855 288.6822 0001504  86.8682 273.2755 15.75241901  4829
STARLINK-36559          
1 67555U 26014Z   26044.87584118  .00224155  00000+0  14597-2 0  9995
2 67555  97.2856 288.6132 0001305  81.6571 278.4842 15.75267692  4812
